OBJECT_NAME,OBJECT_ID,EPOCH,MEAN_MOTION,ECCENTRICITY,INCLINATION,RA_OF_ASC_NODE,ARG_OF_PERICENTER,MEAN_ANOMALY,EPHEMERIS_TYPE,CLASSIFICATION_TYPE,NORAD_CAT_ID,ELEMENT_SET_NO,REV_AT_EPOCH,BSTAR,MEAN_MOTION_DOT,MEAN_MOTION_DDOT
TDRS 3,1988-091B,2026-07-04T18:47:15.337824,1.00267291,.00369499,12.5885,340.8805,356.2571,178.5294,0,U,19548,999,12556,0,-.29E-5,0
FLTSATCOM 8 (USA 46),1989-077A,2026-07-04T19:37:09.685344,1.00268361,.00037273,12.4164,351.0573,63.5378,288.2309,0,U,20253,999,26073,0,-.359E-5,0
SKYNET 4C,1990-079A,2026-07-04T11:45:23.021856,0.98576416,.00033205,13.3327,349.7007,130.3756,235.1645,0,U,20776,999,21,0,.6E-7,0
TDRS 5,1991-054B,2026-07-04T16:30:41.571360,1.00270147,.00067813,14.0687,353.6445,257.2907,111.7660,0,U,21639,999,12789,0,.92E-6,0
TDRS 6,1993-003B,2026-07-04T21:26:53.318688,1.00264892,.00088862,14.1830,356.9266,180.2224,21.3711,0,U,22314,999,12258,0,-.289E-5,0
UFO 2 (USA 95),1993-056A,2026-07-04T20:32:39.321888,1.00277107,.00040883,11.9008,3.4566,9.5306,246.7357,0,U,22787,999,11872,0,.133E-5,0
USA 99 (MILSTAR-1 1),1994-009A,2026-07-04T13:27:00.453024,0.98720802,.00012841,17.6510,27.5232,183.6473,181.2170,0,U,22988,999,3312,0,-.24E-6,0
UFO 4 (USA 108),1995-003A,2026-07-04T19:50:15.928800,1.00274518,.00030454,9.6812,13.0746,86.3475,293.2219,0,U,23467,999,11513,0,-.13E-6,0
TDRS 7,1995-035B,2026-07-04T22:51:52.167168,1.00276608,.00117015,13.3697,348.0673,83.5489,283.4582,0,U,23613,999,11343,0,-.232E-5,0
USA 115 (MILSTAR-1 2),1995-060A,2026-07-04T11:44:56.395968,1.00272629,.00064341,14.0785,3.6125,118.0225,247.0722,0,U,23712,999,3306,0,-.195E-5,0
INMARSAT 3-F1,1996-020A,2026-07-04T15:03:34.941600,0.99978476,.0004065,10.6365,46.4727,75.5734,272.8580,0,U,23839,999,11042,0,.3E-7,0
INMARSAT 3-F2,1996-053A,2026-07-04T23:04:13.482624,0.99996772,.00064361,9.8962,53.7541,45.3444,301.9030,0,U,24307,999,10909,0,-.341E-5,0
INMARSAT 3-F3,1996-070A,2026-07-04T20:56:12.831936,0.99990916,.00033584,10.3556,49.4824,60.5961,151.1847,0,U,24674,999,10808,0,.104E-5,0
USA 134,1997-065A,2026-07-04T15:03:49.918176,1.00271754,.00024459,12.8034,21.5864,344.3798,30.1885,0,U,25019,999,3313,0,-.55E-6,0
INMARSAT 3-F5,1998-006B,2026-07-04T11:55:10.414848,1.00269525,.00041262,9.7291,53.0842,51.7503,302.4771,0,U,25153,999,10406,0,-.283E-5,0
ABS-6,1999-053A,2026-07-04T21:29:15.959904,1.00271798,.0002988,0.0347,280.2947,163.3268,320.5885,0,U,25924,999,9801,0,-.107E-5,0
UFO 10 (USA 146),1999-063A,2026-07-03T08:41:34.247616,1.00274578,.00020848,9.8455,27.1245,90.6970,270.9591,0,U,25967,999,9751,0,-.181E-5,0
ASIASTAR,2000-016A,2026-07-04T14:23:14.097408,1.00268449,.00043965,9.1673,57.9652,47.6016,137.8309,0,U,26107,999,9609,0,-.325E-5,0
USA 149 (DSP 20),2000-024A,2026-07-04T04:32:58.280352,1.00282702,.00013141,13.1824,11.7258,309.3793,224.3598,0,U,26356,999,3308,0,.103E-5,0
TDRS 8,2000-034A,2026-07-04T23:11:03.749568,1.00274304,.00044778,12.7111,31.1697,28.6286,295.7452,0,U,26388,999,9535,0,-.188E-5,0
NSS-11,2000-059A,2026-07-04T21:34:07.992768,1.00271990,.00030148,2.1693,81.1890,22.1356,319.1068,0,U,26554,999,4146,0,.37E-6,0
USA 153,2000-065A,2026-07-04T13:23:38.736672,1.00275925,.00022661,11.6532,35.2729,55.2396,167.3347,0,U,26575,999,3310,0,-.317E-5,0
AMC-6,2000-067A,2026-07-04T06:48:38.589408,1.00270800,.00039445,0.1930,83.5317,29.7815,136.1163,0,U,26580,999,9406,0,.1E-5,0
USA 157 (MILSTAR-2 2),2001-009A,2026-07-04T16:35:48.580800,1.00270430,.00402191,11.5606,19.6490,178.4252,183.4942,0,U,26715,999,3312,0,.117E-5,0
INTELSAT 902 (IS-902),2001-039A,2026-07-04T03:23:02.141664,1.00271305,.00042888,6.1589,71.5754,29.8464,181.3792,0,U,26900,999,9086,0,-.274E-5,0
USA 164 (MILSTAR-2 3),2002-001A,2026-07-04T23:12:18.570240,1.00273846,.00988946,11.1994,21.7923,8.9582,259.2241,0,U,27168,999,3313,0,.106E-5,0
INTELSAT 904 (IS-904),2002-007A,2026-07-04T04:08:33.976608,1.00270910,.00061334,6.9595,68.9807,17.8107,226.0553,0,U,27380,999,5193,0,-.217E-5,0
DIRECTV 5 (TEMPO 1),2002-023A,2026-07-03T09:29:38.785920,1.00271698,.0003513,4.9166,75.1124,37.3501,201.2642,0,U,27426,999,8828,0,-.48E-6,0
INTELSAT 905 (IS-905),2002-027A,2026-07-04T18:22:10.242912,1.00272930,.00038993,6.7946,69.5884,37.7783,313.7493,0,U,27438,999,5153,0,.103E-5,0
GALAXY 3C (G-3C),2002-030A,2026-07-04T20:16:50.880576,1.00271630,.00018141,3.7755,77.7510,31.4025,23.0857,0,U,27445,999,4667,0,-.142E-5,0
INTELSAT 906 (IS-906),2002-041A,2026-07-04T21:35:45.459744,1.00271031,.00040423,5.8464,72.7032,12.9273,225.3442,0,U,27513,999,8720,0,.23E-6,0
