TDRS 3                  
1 19548U 88091B   26185.78281641 -.00000290  00000+0  00000+0 0  9992
2 19548  12.5885 340.8805 0036949 356.2571 178.5294  1.00267291125569
FLTSATCOM 8 (USA 46)    
1 20253U 89077A   26185.81747321 -.00000359  00000+0  00000+0 0  9994
2 20253  12.4164 351.0573 0003727  63.5378 288.2309  1.00268361260734
SKYNET 4C               
1 20776U 90079A   26185.48984979  .00000006  00000+0  00000+0 0  9991
2 20776  13.3327 349.7007 0003320 130.3756 235.1645  0.98576416   211
TDRS 5                  
1 21639U 91054B   26185.68798115  .00000092  00000+0  00000+0 0  9996
2 21639  14.0687 353.6445 0006781 257.2907 111.7660  1.00270147127894
TDRS 6                  
1 22314U 93003B   26185.89367267 -.00000289  00000+0  00000+0 0  9995
2 22314  14.1830 356.9266 0008886 180.2224  21.3711  1.00264892122582
UFO 2 (USA 95)          
1 22787U 93056A   26185.85601067  .00000133  00000+0  00000+0 0  9999
2 22787  11.9008   3.4566 0004088   9.5306 246.7357  1.00277107118722
USA 99 (MILSTAR-1 1)    
1 22988U 94009A   26185.56042191 -.00000024  00000+0  00000+0 0  9996
2 22988  17.6510  27.5232 0001284 183.6473 181.2170  0.98720802 33124
UFO 4 (USA 108)         
1 23467U 95003A   26185.82657325 -.00000013  00000+0  00000+0 0  9992
2 23467   9.6812  13.0746 0003045  86.3475 293.2219  1.00274518115133
TDRS 7                  
1 23613U 95035B   26185.95268712 -.00000232  00000+0  00000+0 0  9995
2 23613  13.3697 348.0673 0011701  83.5489 283.4582  1.00276608113438
USA 115 (MILSTAR-1 2)   
1 23712U 95060A   26185.48954162 -.00000195  00000+0  00000+0 0  9990
2 23712  14.0785   3.6125 0006434 118.0225 247.0722  1.00272629 33060
INMARSAT 3-F1           
1 23839U 96020A   26185.62748775  .00000003  00000+0  00000+0 0  9991
2 23839  10.6365  46.4727 0004065  75.5734 272.8580  0.99978476110423
INMARSAT 3-F2           
1 24307U 96053A   26185.96126716 -.00000341  00000+0  00000+0 0  9996
2 24307   9.8962  53.7541 0006436  45.3444 301.9030  0.99996772109093
INMARSAT 3-F3           
1 24674U 96070A   26185.87237074  .00000104  00000+0  00000+0 0  9998
2 24674  10.3556  49.4824 0003358  60.5961 151.1847  0.99990916108088
USA 134                 
1 25019U 97065A   26185.62766109 -.00000055  00000+0  00000+0 0  9992
2 25019  12.8034  21.5864 0002445 344.3798  30.1885  1.00271754 33138
INMARSAT 3-F5           
1 25153U 98006B   26185.49664832 -.00000283  00000+0  00000+0 0  9995
2 25153   9.7291  53.0842 0004126  51.7503 302.4771  1.00269525104067
ABS-6                   
1 25924U 99053A   26185.89532361 -.00000107  00000+0  00000+0 0  9994
2 25924   0.0347 280.2947 0002988 163.3268 320.5885  1.00271798 98010
UFO 10 (USA 146)        
1 25967U 99063A   26184.36220194 -.00000181  00000+0  00000+0 0  9993
2 25967   9.8455  27.1245 0002084  90.6970 270.9591  1.00274578 97517
ASIASTAR                
1 26107U 00016A   26185.59946872 -.00000325  00000+0  00000+0 0  9994
2 26107   9.1673  57.9652 0004396  47.6016 137.8309  1.00268449 96093
USA 149 (DSP 20)        
1 26356U 00024A   26185.18956343  .00000103  00000+0  00000+0 0  9991
2 26356  13.1824  11.7258 0001314 309.3793 224.3598  1.00282702 33089
TDRS 8                  
1 26388U 00034A   26185.96601562 -.00000188  00000+0  00000+0 0  9997
2 26388  12.7111  31.1697 0004477  28.6286 295.7452  1.00274304 95350
NSS-11                  
1 26554U 00059A   26185.89870362  .00000037  00000+0  00000+0 0  9999
2 26554   2.1693  81.1890 0003014  22.1356 319.1068  1.00271990 41461
USA 153                 
1 26575U 00065A   26185.55808723 -.00000317  00000+0  00000+0 0  9996
2 26575  11.6532  35.2729 0002266  55.2396 167.3347  1.00275925 33108
AMC-6                   
1 26580U 00067A   26185.28377997  .00000100  00000+0  00000+0 0  9997
2 26580   0.1930  83.5317 0003944  29.7815 136.1163  1.00270800 94063
USA 157 (MILSTAR-2 2)   
1 26715U 01009A   26185.69153450  .00000117  00000+0  00000+0 0  9993
2 26715  11.5606  19.6490 0040219 178.4252 183.4942  1.00270430 33123
INTELSAT 902 (IS-902)   
1 26900U 01039A   26185.14099701 -.00000274  00000+0  00000+0 0  9995
2 26900   6.1589  71.5754 0004288  29.8464 181.3792  1.00271305 90865
USA 164 (MILSTAR-2 3)   
1 27168U 02001A   26185.96688160  .00000106  00000+0  00000+0 0  9998
2 27168  11.1994  21.7923 0098894   8.9582 259.2241  1.00273846 33131
INTELSAT 904 (IS-904)   
1 27380U 02007A   26185.17261547 -.00000217  00000+0  00000+0 0  9993
2 27380   6.9595  68.9807 0006133  17.8107 226.0553  1.00270910 51932
DIRECTV 5 (TEMPO 1)     
1 27426U 02023A   26184.39558780 -.00000048  00000+0  00000+0 0  9995
2 27426   4.9166  75.1124 0003513  37.3501 201.2642  1.00271698 88287
INTELSAT 905 (IS-905)   
1 27438U 02027A   26185.76539633  .00000103  00000+0  00000+0 0  9991
2 27438   6.7946  69.5884 0003899  37.7783 313.7493  1.00272930 51530
GALAXY 3C (G-3C)        
1 27445U 02030A   26185.84503334 -.00000142  00000+0  00000+0 0  9995
2 27445   3.7755  77.7510 0001814  31.4025  23.0857  1.00271630 46675
INTELSAT 906 (IS-906)   
1 27513U 02041A   26185.89983171  .00000023  00000+0  00000+0 0  9996
2 27513   5.8464  72.7032 0004042  12.9273 225.3442  1.00271031 87206
